SAOCOM 1A
1 43641U 18076A   25334.99258334  .00000566  00000+0  77585-4 0  9992
2 43641  97.8848 159.5857 0001577  87.3887 272.7507 14.82156367386746